{
  "type": "FeatureCollection",
  "features": [
    {
      "type": "Feature",
      "properties": {
        "norad_id": 55973,
        "name": "TIANMU-1 03",
        "group": "weather",
        "lat": -7.1242370605952186,
        "lon": 139.60669353512122,
        "alt_km": 449.21039139394816,
        "timestamp": "2025-12-02T07:10:08.752039+00:00",
        "meta_object_name": "TIANMU-1 03",
        "meta_object_id": "2023-039A",
        "meta_epoch": "2025-12-01T20:17:13.795584",
        "meta_mean_motion": 15.40432948,
        "meta_eccentricity": 0.0004525,
        "meta_inclination": 97.5103,
        "meta_ra_of_asc_node": 138.1963,
        "meta_arg_of_pericenter": 92.5938,
        "meta_mean_anomaly": 267.5826,
        "meta_ephemeris_type": 0,
        "meta_classification_type": "U",
        "meta_norad_cat_id": 55973,
        "meta_element_set_no": 999,
        "meta_rev_at_epoch": 15038,
        "meta_bstar": 0.00040267,
        "meta_mean_motion_dot": 0.00016229,
        "meta_mean_motion_ddot": 0,
        "tle_line1": "1 55973U 23039A   25335.84529856  .00016229  00000+0  40267-3 0  9992",
        "tle_line2": "2 55973  97.5103 138.1963 0004525  92.5938 267.5826 15.40432948150382"
      },
      "geometry": {
        "type": "Point",
        "coordinates": [
          139.60669353512122,
          -7.1242370605952186
        ]
      }
    },
    {
      "type": "Feature",
      "properties": {
        "norad_id": 55974,
        "name": "TIANMU-1 04",
        "group": "weather",
        "lat": 81.26207372372065,
        "lon": 16.901359691251308,
        "alt_km": 432.83683528509846,
        "timestamp": "2025-12-02T07:10:08.752052+00:00",
        "meta_object_name": "TIANMU-1 04",
        "meta_object_id": "2023-039B",
        "meta_epoch": "2025-12-01T21:24:31.847328",
        "meta_mean_motion": 15.40762546,
        "meta_eccentricity": 0.0005251,
        "meta_inclination": 97.5034,
        "meta_ra_of_asc_node": 137.44,
        "meta_arg_of_pericenter": 88.3734,
        "meta_mean_anomaly": 271.8113,
        "meta_ephemeris_type": 0,
        "meta_classification_type": "U",
        "meta_norad_cat_id": 55974,
        "meta_element_set_no": 999,
        "meta_rev_at_epoch": 15039,
        "meta_bstar": 0.00041321,
        "meta_mean_motion_dot": 0.00016841,
        "meta_mean_motion_ddot": 0,
        "tle_line1": "1 55974U 23039B   25335.89203527  .00016841  00000+0  41321-3 0  9994",
        "tle_line2": "2 55974  97.5034 137.4400 0005251  88.3734 271.8113 15.40762546150396"
      },
      "geometry": {
        "type": "Point",
        "coordinates": [
          16.901359691251308,
          81.26207372372065
        ]
      }
    },
    {
      "type": "Feature",
      "properties": {
        "norad_id": 55975,
        "name": "TIANMU-1 05",
        "group": "weather",
        "lat": 39.053723506282566,
        "lon": -35.50803466692559,
        "alt_km": 439.575638702383,
        "timestamp": "2025-12-02T07:10:08.752062+00:00",
        "meta_object_name": "TIANMU-1 05",
        "meta_object_id": "2023-039C",
        "meta_epoch": "2025-12-01T19:38:54.038400",
        "meta_mean_motion": 15.40390081,
        "meta_eccentricity": 0.0004294,
        "meta_inclination": 97.5081,
        "meta_ra_of_asc_node": 137.8564,
        "meta_arg_of_pericenter": 109.1104,
        "meta_mean_anomaly": 251.0607,
        "meta_ephemeris_type": 0,
        "meta_classification_type": "U",
        "meta_norad_cat_id": 55975,
        "meta_element_set_no": 999,
        "meta_rev_at_epoch": 15036,
        "meta_bstar": 0.00040873,
        "meta_mean_motion_dot": 0.00016451,
        "meta_mean_motion_ddot": 0,
        "tle_line1": "1 55975U 23039C   25335.81868100  .00016451  00000+0  40873-3 0  9999",
        "tle_line2": "2 55975  97.5081 137.8564 0004294 109.1104 251.0607 15.40390081150369"
      },
      "geometry": {
        "type": "Point",
        "coordinates": [
          -35.50803466692559,
          39.053723506282566
        ]
      }
    },
    {
      "type": "Feature",
      "properties": {
        "norad_id": 55976,
        "name": "TIANMU-1 06",
        "group": "weather",
        "lat": 77.82384257514747,
        "lon": 101.11951086072317,
        "alt_km": 433.4502005545637,
        "timestamp": "2025-12-02T07:10:08.752072+00:00",
        "meta_object_name": "TIANMU-1 06",
        "meta_object_id": "2023-039D",
        "meta_epoch": "2025-12-01T21:28:11.669664",
        "meta_mean_motion": 15.40815585,
        "meta_eccentricity": 0.0004658,
        "meta_inclination": 97.5092,
        "meta_ra_of_asc_node": 138.3906,
        "meta_arg_of_pericenter": 104.5275,
        "meta_mean_anomaly": 255.6488,
        "meta_ephemeris_type": 0,
        "meta_classification_type": "U",
        "meta_norad_cat_id": 55976,
        "meta_element_set_no": 999,
        "meta_rev_at_epoch": 15039,
        "meta_bstar": 0.0004082,
        "meta_mean_motion_dot": 0.00016663,
        "meta_mean_motion_ddot": 0,
        "tle_line1": "1 55976U 23039D   25335.89457951  .00016663  00000+0  40820-3 0  9993",
        "tle_line2": "2 55976  97.5092 138.3906 0004658 104.5275 255.6488 15.40815585150391"
      },
      "geometry": {
        "type": "Point",
        "coordinates": [
          101.11951086072317,
          77.82384257514747
        ]
      }
    },
    {
      "type": "Feature",
      "properties": {
        "norad_id": 56232,
        "name": "FENGYUN 3G",
        "group": "weather",
        "lat": -13.381579316579202,
        "lon": -90.22997260832953,
        "alt_km": 413.699897143827,
        "timestamp": "2025-12-02T07:10:08.752082+00:00",
        "meta_object_name": "FENGYUN 3G",
        "meta_object_id": "2023-055A",
        "meta_epoch": "2025-12-01T21:58:38.474976",
        "meta_mean_motion": 15.52657572,
        "meta_eccentricity": 0.0009216,
        "meta_inclination": 49.9948,
        "meta_ra_of_asc_node": 283.2696,
        "meta_arg_of_pericenter": 96.3717,
        "meta_mean_anomaly": 263.83,
        "meta_ephemeris_type": 0,
        "meta_classification_type": "U",
        "meta_norad_cat_id": 56232,
        "meta_element_set_no": 999,
        "meta_rev_at_epoch": 14934,
        "meta_bstar": 0.00052666,
        "meta_mean_motion_dot": 0.00032819,
        "meta_mean_motion_ddot": 0,
        "tle_line1": "1 56232U 23055A   25335.91572309  .00032819  00000+0  52666-3 0  9997",
        "tle_line2": "2 56232  49.9948 283.2696 0009216  96.3717 263.8300 15.52657572149348"
      },
      "geometry": {
        "type": "Point",
        "coordinates": [
          -90.22997260832953,
          -13.381579316579202
        ]
      }
    },
    {
      "type": "Feature",
      "properties": {
        "norad_id": 57166,
        "name": "METEOR-M2 3",
        "group": "weather",
        "lat": 31.27430433376927,
        "lon": 24.721175016493078,
        "alt_km": 806.7810458857393,
        "timestamp": "2025-12-02T07:10:08.752092+00:00",
        "meta_object_name": "METEOR-M2 3",
        "meta_object_id": "2023-091A",
        "meta_epoch": "2025-12-01T20:54:10.924992",
        "meta_mean_motion": 14.24023857,
        "meta_eccentricity": 0.0004479,
        "meta_inclination": 98.6393,
        "meta_ra_of_asc_node": 29.5994,
        "meta_arg_of_pericenter": 37.7848,
        "meta_mean_anomaly": 322.3645,
        "meta_ephemeris_type": 0,
        "meta_classification_type": "U",
        "meta_norad_cat_id": 57166,
        "meta_element_set_no": 999,
        "meta_rev_at_epoch": 12643,
        "meta_bstar": 3.0069e-05,
        "meta_mean_motion_dot": 2.6e-07,
        "meta_mean_motion_ddot": 0,
        "tle_line1": "1 57166U 23091A   25335.87095978  .00000026  00000+0  30069-4 0  9990",
        "tle_line2": "2 57166  98.6393  29.5994 0004479  37.7848 322.3645 14.24023857126431"
      },
      "geometry": {
        "type": "Point",
        "coordinates": [
          24.721175016493078,
          31.27430433376927
        ]
      }
    },
    {
      "type": "Feature",
      "properties": {
        "norad_id": 57399,
        "name": "TIANMU-1 07",
        "group": "weather",
        "lat": -78.39760891126555,
        "lon": 64.95336008187103,
        "alt_km": 493.4320918639123,
        "timestamp": "2025-12-02T07:10:08.752102+00:00",
        "meta_object_name": "TIANMU-1 07",
        "meta_object_id": "2023-101A",
        "meta_epoch": "2025-12-01T20:31:12.719712",
        "meta_mean_motion": 15.27822096,
        "meta_eccentricity": 0.0005553,
        "meta_inclination": 97.29,
        "meta_ra_of_asc_node": 25.9465,
        "meta_arg_of_pericenter": 109.2705,
        "meta_mean_anomaly": 250.9136,
        "meta_ephemeris_type": 0,
        "meta_classification_type": "U",
        "meta_norad_cat_id": 57399,
        "meta_element_set_no": 999,
        "meta_rev_at_epoch": 13149,
        "meta_bstar": 0.00029009,
        "meta_mean_motion_dot": 7.813e-05,
        "meta_mean_motion_ddot": 0,
        "tle_line1": "1 57399U 23101A   25335.85500833  .00007813  00000+0  29009-3 0  9991",
        "tle_line2": "2 57399  97.2900  25.9465 0005553 109.2705 250.9136 15.27822096131491"
      },
      "geometry": {
        "type": "Point",
        "coordinates": [
          64.95336008187103,
          -78.39760891126555
        ]
      }
    }
  ]
}